*******************************************************************************
JPL/HORIZONS               1514 Ricouxa (A906 QG)          2023-Sep-04 11:12:35
Rec #:    1514 (+COV) Soln.date: 2023-Aug-22_04:08:21   # obs: 6057 (1906-2023)
 
IAU76/J2000 helio. ecliptic osc. elements (au, days, deg., period=Julian yrs):
 
  EPOCH=  2457768.5 ! 2017-Jan-15.00 (TDB)         Residual RMS= .2485
   EC= .1993348226628518   QR= 1.793707071460992   TP= 2457857.8691921225
   OM= 145.8542744092401   W=  179.3851963172156   IN= 4.535091731821529
   A= 2.240271117355824    MA= 333.7311514741168   ADIST= 2.686835163250655
   PER= 3.3532             N= .293936287           ANGMOM= .025230591
   DAN= 2.6868             DDN= 1.79372            L= 325.2413955
   B= .0486114             MOID= .78282899         TP= 2017-Apr-14.3691921225
 
Asteroid physical parameters (km, seconds, rotational period in hours):
   GM= n.a.                RAD= 3.892              ROTPER= 10.438
   H= 12.74                G= .150                 B-V= n.a.
                           ALBEDO= .228            STYP= n.a.

ASTEROID comments: 
1: soln ref.= JPL#54, OCC=0
2: source=ORB
*******************************************************************************

  

*******************************************************************************
Ephemeris / API_USER Mon Sep  4 11:12:35 2023 Pasadena, USA      / Horizons
*******************************************************************************
Target body name: 1514 Ricouxa (A906 QG)          {source: JPL#54}
Center body name: Solar System Barycenter (0)     {source: DE441}
Center-site name: BODY CENTER
*******************************************************************************
Start time      : A.D. 2023-Aug-12 00:00:00.0000 TDB
Stop  time      : A.D. 2023-Aug-13 00:00:00.0000 TDB
Step-size       : 2880 minutes
*******************************************************************************
Center geodetic : 0.0, 0.0, 0.0                   {E-lon(deg),Lat(deg),Alt(km)}
Center cylindric: 0.0, 0.0, 0.0                   {E-lon(deg),Dxy(km),Dz(km)}
Center radii    : (undefined)
Small perturbers: Yes                             {source: SB441-N16}
Output units    : KM-S
Calendar mode   : Mixed Julian/Gregorian
Output type     : GEOMETRIC cartesian states
Output format   : 2 (position and velocity)
Reference frame : Ecliptic of J2000.0
*******************************************************************************
Initial IAU76/J2000 heliocentric ecliptic osculating elements (au, days, deg.):
  EPOCH=  2457768.5 ! 2017-Jan-15.00 (TDB)         Residual RMS= .2485         
   EC= .1993348226628518   QR= 1.793707071460992   TP= 2457857.8691921225      
   OM= 145.8542744092401   W=  179.3851963172156   IN= 4.535091731821529       
  Equivalent ICRF heliocentric cartesian coordinates (au, au/d):
   X= 5.190107292242963E-01  Y=-1.676952345521604E+00  Z=-6.243800752909534E-01
  VX= 1.258086216891562E-02 VY= 5.077714825219865E-03 VZ= 1.222840716635903E-03
Asteroid physical parameters (km, seconds, rotational period in hours):        
   GM= n.a.                RAD= 3.892              ROTPER= 10.438              
   H= 12.74                G= .150                 B-V= n.a.                   
                           ALBEDO= .228            STYP= n.a.                  
*******************************************************************************
JDTDB
   X     Y     Z
   VX    VY    VZ
*******************************************************************************
$$SOE
2460168.500000000 = A.D. 2023-Aug-12 00:00:00.0000 TDB 
 X =-2.016563050722628E+07 Y =-2.909022428656882E+08 Z = 1.994992078654362E+07
 VX= 2.255026149412809E+01 VY= 1.925772880838957E+00 VZ=-1.132111064369470E+00
$$EOE
*******************************************************************************
 
TIME

  Barycentric Dynamical Time ("TDB" or T_eph) output was requested. This
continuous coordinate time is equivalent to the relativistic proper time
of a clock at rest in a reference frame co-moving with the solar system
barycenter but outside the system's gravity well. It is the independent
variable in the solar system relativistic equations of motion.

  TDB runs at a uniform rate of one SI second per second and is independent
of irregularities in Earth's rotation.
 
CALENDAR SYSTEM

  Mixed calendar mode was active such that calendar dates after AD 1582-Oct-15
(if any) are in the modern Gregorian system. Dates prior to 1582-Oct-5 (if any)
are in the Julian calendar system, which is automatically extended for dates
prior to its adoption on 45-Jan-1 BC.  The Julian calendar is useful for
matching historical dates. The Gregorian calendar more accurately corresponds
to the Earth's orbital motion and seasons. A "Gregorian-only" calendar mode is
available if such physical events are the primary interest.

REFERENCE FRAME AND COORDINATES

  Ecliptic at the standard reference epoch

    Reference epoch: J2000.0
    X-Y plane: adopted Earth orbital plane at the reference epoch
               Note: IAU76 obliquity of 84381.448 arcseconds wrt ICRF X-Y plane
    X-axis   : ICRF
    Z-axis   : perpendicular to the X-Y plane in the directional (+ or -) sense
               of Earth's north pole at the reference epoch.

  Symbol meaning:

    JDTDB    Julian Day Number, Barycentric Dynamical Time
      X      X-component of position vector (km)
      Y      Y-component of position vector (km)
      Z      Z-component of position vector (km)
      VX     X-component of velocity vector (km/sec)                           
      VY     Y-component of velocity vector (km/sec)                           
      VZ     Z-component of velocity vector (km/sec)                           

ABERRATIONS AND CORRECTIONS

 Geometric state vectors have NO corrections or aberrations applied.

Computations by ...

    Solar System Dynamics Group, Horizons On-Line Ephemeris System
    4800 Oak Grove Drive, Jet Propulsion Laboratory
    Pasadena, CA  91109   USA

    General site: https://ssd.jpl.nasa.gov/
    Mailing list: https://ssd.jpl.nasa.gov/email_list.html
    System news : https://ssd.jpl.nasa.gov/horizons/news.html
    User Guide  : https://ssd.jpl.nasa.gov/horizons/manual.html
    Connect     : browser        https://ssd.jpl.nasa.gov/horizons/app.html#/x
                  API            https://ssd-api.jpl.nasa.gov/doc/horizons.html
                  command-line   telnet ssd.jpl.nasa.gov 6775
                  e-mail/batch   https://ssd.jpl.nasa.gov/ftp/ssd/hrzn_batch.txt
                  scripts        https://ssd.jpl.nasa.gov/ftp/ssd/SCRIPTS
    Author      : Jon.D.Giorgini@jpl.nasa.gov
*******************************************************************************
